[{"OBJECT_NAME":"ALOS (DAICHI)","OBJECT_ID":"2006-002A","EPOCH":"2026-04-05T02:53:08.234016","MEAN_MOTION":14.69897462,"ECCENTRICITY":0.00011549,"INCLINATION":98.1263,"RA_OF_ASC_NODE":50.9521,"ARG_OF_PERICENTER":115.7482,"MEAN_ANOMALY":244.3843,"EPHEMERIS_TYPE":0,"CLASSIFICATION_TYPE":"U","NORAD_CAT_ID":28931,"ELEMENT_SET_NO":999,"REV_AT_EPOCH":7736,"BSTAR":0.00033292549,"MEAN_MOTION_DOT":1.942e-5,"MEAN_MOTION_DDOT":0},{"OBJECT_NAME":"H-2A R/B","OBJECT_ID":"2006-002B","EPOCH":"2026-04-04T23:57:57.436416","MEAN_MOTION":15.17060462,"ECCENTRICITY":0.00525061,"INCLINATION":98.2467,"RA_OF_ASC_NODE":244.3046,"ARG_OF_PERICENTER":151.3054,"MEAN_ANOMALY":209.1084,"EPHEMERIS_TYPE":0,"CLASSIFICATION_TYPE":"U","NORAD_CAT_ID":28932,"ELEMENT_SET_NO":999,"REV_AT_EPOCH":9842,"BSTAR":0.00061550061,"MEAN_MOTION_DOT":0.00012555,"MEAN_MOTION_DDOT":0},{"OBJECT_NAME":"RESURS-DK 1","OBJECT_ID":"2006-021A","EPOCH":"2026-04-05T05:57:08.330112","MEAN_MOTION":15.12915812,"ECCENTRICITY":0.00020601,"INCLINATION":69.9329,"RA_OF_ASC_NODE":168.3203,"ARG_OF_PERICENTER":32.7151,"MEAN_ANOMALY":327.4142,"EPHEMERIS_TYPE":0,"CLASSIFICATION_TYPE":"U","NORAD_CAT_ID":29228,"ELEMENT_SET_NO":999,"REV_AT_EPOCH":9154,"BSTAR":0.00019855547,"MEAN_MOTION_DOT":3.399e-5,"MEAN_MOTION_DDOT":0},{"OBJECT_NAME":"CZ-4B R/B","OBJECT_ID":"2006-046C","EPOCH":"2026-04-05T03:00:09.925632","MEAN_MOTION":15.17196776,"ECCENTRICITY":0.00333582,"INCLINATION":97.5536,"RA_OF_ASC_NODE":139.9601,"ARG_OF_PERICENTER":173.2345,"MEAN_ANOMALY":186.9346,"EPHEMERIS_TYPE":0,"CLASSIFICATION_TYPE":"U","NORAD_CAT_ID":29507,"ELEMENT_SET_NO":999,"REV_AT_EPOCH":6405,"BSTAR":0.00033024274,"MEAN_MOTION_DOT":6.587e-5,"MEAN_MOTION_DDOT":0},{"OBJECT_NAME":"CZ-2C R/B","OBJECT_ID":"2007-010B","EPOCH":"2026-04-05T06:51:19.177632","MEAN_MOTION":14.20256773,"ECCENTRICITY":0.0058394,"INCLINATION":98.4006,"RA_OF_ASC_NODE":207.235,"ARG_OF_PERICENTER":215.9362,"MEAN_ANOMALY":143.7882,"EPHEMERIS_TYPE":0,"CLASSIFICATION_TYPE":"U","NORAD_CAT_ID":31114,"ELEMENT_SET_NO":999,"REV_AT_EPOCH":98349,"BSTAR":0.00011699714,"MEAN_MOTION_DOT":2.13e-6,"MEAN_MOTION_DDOT":0},{"OBJECT_NAME":"COSMO-SKYMED 1","OBJECT_ID":"2007-023A","EPOCH":"2026-04-05T06:34:25.473216","MEAN_MOTION":14.96746436,"ECCENTRICITY":0.00016564,"INCLINATION":97.8873,"RA_OF_ASC_NODE":286.5231,"ARG_OF_PERICENTER":99.5694,"MEAN_ANOMALY":260.5714,"EPHEMERIS_TYPE":0,"CLASSIFICATION_TYPE":"U","NORAD_CAT_ID":31598,"ELEMENT_SET_NO":999,"REV_AT_EPOCH":1888,"BSTAR":0.00046831588,"MEAN_MOTION_DOT":5.296e-5,"MEAN_MOTION_DDOT":0},{"OBJECT_NAME":"COSMOS 2428","OBJECT_ID":"2007-029A","EPOCH":"2026-04-05T07:05:06.827424","MEAN_MOTION":14.12948974,"ECCENTRICITY":0.00096959,"INCLINATION":70.942,"RA_OF_ASC_NODE":147.5034,"ARG_OF_PERICENTER":249.4024,"MEAN_ANOMALY":110.6058,"EPHEMERIS_TYPE":0,"CLASSIFICATION_TYPE":"U","NORAD_CAT_ID":31792,"ELEMENT_SET_NO":999,"REV_AT_EPOCH":96785,"BSTAR":8.543122e-6,"MEAN_MOTION_DOT":-3.2e-7,"MEAN_MOTION_DDOT":0},{"OBJECT_NAME":"SL-16 R/B","OBJECT_ID":"2007-029B","EPOCH":"2026-04-05T05:18:01.193760","MEAN_MOTION":14.1484388,"ECCENTRICITY":0.00029133,"INCLINATION":70.9738,"RA_OF_ASC_NODE":116.6153,"ARG_OF_PERICENTER":276.4717,"MEAN_ANOMALY":160.5152,"EPHEMERIS_TYPE":0,"CLASSIFICATION_TYPE":"U","NORAD_CAT_ID":31793,"ELEMENT_SET_NO":999,"REV_AT_EPOCH":96912,"BSTAR":-4.0779901e-5,"MEAN_MOTION_DOT":-1.27e-6,"MEAN_MOTION_DDOT":0},{"OBJECT_NAME":"KORONAS-FOTON","OBJECT_ID":"2009-003A","EPOCH":"2026-04-05T03:31:53.237280","MEAN_MOTION":15.44107624,"ECCENTRICITY":0.00114093,"INCLINATION":82.4289,"RA_OF_ASC_NODE":248.3526,"ARG_OF_PERICENTER":63.5032,"MEAN_ANOMALY":296.7385,"EPHEMERIS_TYPE":0,"CLASSIFICATION_TYPE":"U","NORAD_CAT_ID":33504,"ELEMENT_SET_NO":999,"REV_AT_EPOCH":94982,"BSTAR":0.00037323034,"MEAN_MOTION_DOT":0.00017158,"MEAN_MOTION_DDOT":0},{"OBJECT_NAME":"CZ-2C R/B","OBJECT_ID":"2011-030B","EPOCH":"2026-04-05T07:31:14.068128","MEAN_MOTION":14.81320163,"ECCENTRICITY":0.00509282,"INCLINATION":97.859,"RA_OF_ASC_NODE":52.0535,"ARG_OF_PERICENTER":263.6264,"MEAN_ANOMALY":257.9435,"EPHEMERIS_TYPE":0,"CLASSIFICATION_TYPE":"U","NORAD_CAT_ID":37731,"ELEMENT_SET_NO":999,"REV_AT_EPOCH":79403,"BSTAR":0.00025343792,"MEAN_MOTION_DOT":1.967e-5,"MEAN_MOTION_DDOT":0},{"OBJECT_NAME":"H-2A R/B","OBJECT_ID":"2012-025E","EPOCH":"2026-04-05T03:52:27.545088","MEAN_MOTION":14.95359059,"ECCENTRICITY":0.00433546,"INCLINATION":98.4775,"RA_OF_ASC_NODE":64.3387,"ARG_OF_PERICENTER":225.1948,"MEAN_ANOMALY":134.5743,"EPHEMERIS_TYPE":0,"CLASSIFICATION_TYPE":"U","NORAD_CAT_ID":38341,"ELEMENT_SET_NO":999,"REV_AT_EPOCH":75217,"BSTAR":0.00031910083,"MEAN_MOTION_DOT":3.517e-5,"MEAN_MOTION_DDOT":0},{"OBJECT_NAME":"SHIJIAN-16 (SJ-16)","OBJECT_ID":"2013-057A","EPOCH":"2026-04-05T05:49:13.987200","MEAN_MOTION":14.92442118,"ECCENTRICITY":0.00154056,"INCLINATION":74.9708,"RA_OF_ASC_NODE":134.8208,"ARG_OF_PERICENTER":43.7863,"MEAN_ANOMALY":316.4543,"EPHEMERIS_TYPE":0,"CLASSIFICATION_TYPE":"U","NORAD_CAT_ID":39358,"ELEMENT_SET_NO":999,"REV_AT_EPOCH":67546,"BSTAR":0.00010641861,"MEAN_MOTION_DOT":1.064e-5,"MEAN_MOTION_DDOT":0},{"OBJECT_NAME":"SL-4 R/B","OBJECT_ID":"2014-021B","EPOCH":"2026-04-05T07:20:07.571616","MEAN_MOTION":15.4020384,"ECCENTRICITY":0.0094283,"INCLINATION":51.6069,"RA_OF_ASC_NODE":207.3414,"ARG_OF_PERICENTER":200.123,"MEAN_ANOMALY":159.6028,"EPHEMERIS_TYPE":0,"CLASSIFICATION_TYPE":"U","NORAD_CAT_ID":39679,"ELEMENT_SET_NO":999,"REV_AT_EPOCH":66037,"BSTAR":0.0004569257,"MEAN_MOTION_DOT":0.00021451,"MEAN_MOTION_DDOT":0},{"OBJECT_NAME":"ALOS-2","OBJECT_ID":"2014-029A","EPOCH":"2026-04-05T05:32:28.576320","MEAN_MOTION":14.79452015,"ECCENTRICITY":0.00018038,"INCLINATION":97.9198,"RA_OF_ASC_NODE":193.4419,"ARG_OF_PERICENTER":96.8964,"MEAN_ANOMALY":263.2453,"EPHEMERIS_TYPE":0,"CLASSIFICATION_TYPE":"U","NORAD_CAT_ID":39766,"ELEMENT_SET_NO":999,"REV_AT_EPOCH":64079,"BSTAR":6.0955169e-5,"MEAN_MOTION_DOT":4.04e-6,"MEAN_MOTION_DDOT":0},{"OBJECT_NAME":"YAOGAN-29","OBJECT_ID":"2015-069A","EPOCH":"2026-04-05T07:27:30.577248","MEAN_MOTION":14.83029747,"ECCENTRICITY":1.637e-5,"INCLINATION":98.0099,"RA_OF_ASC_NODE":123.8072,"ARG_OF_PERICENTER":161.3576,"MEAN_ANOMALY":198.7644,"EPHEMERIS_TYPE":0,"CLASSIFICATION_TYPE":"U","NORAD_CAT_ID":41038,"ELEMENT_SET_NO":999,"REV_AT_EPOCH":55982,"BSTAR":0.00019638184,"MEAN_MOTION_DOT":1.543e-5,"MEAN_MOTION_DDOT":0},{"OBJECT_NAME":"ASTRO-H (HITOMI)","OBJECT_ID":"2016-012A","EPOCH":"2026-04-04T22:35:42.325440","MEAN_MOTION":15.101819,"ECCENTRICITY":0.00096728,"INCLINATION":30.9987,"RA_OF_ASC_NODE":187.1155,"ARG_OF_PERICENTER":235.8746,"MEAN_ANOMALY":124.0975,"EPHEMERIS_TYPE":0,"CLASSIFICATION_TYPE":"U","NORAD_CAT_ID":41337,"ELEMENT_SET_NO":999,"REV_AT_EPOCH":55620,"BSTAR":0.00023134911,"MEAN_MOTION_DOT":3.97e-5,"MEAN_MOTION_DDOT":0}]
